ONEWEB-0620             
1 55161U 23004X   25199.18724697 -.00000430  00000+0 -12493-2 0  9996
2 55161  87.8824  87.6681 0001808  70.0847 290.0475 13.11417806122055
ONEWEB-0621             
1 55162U 23004Y   25199.21437715  .00000489  00000+0  13426-2 0  9992
2 55162  87.8819  87.6191 0001669  85.0688 275.0630 13.11419090122064
ONEWEB-0622             
1 55163U 23004Z   25199.44835814  .00000478  00000+0  13122-2 0  9991
2 55163  87.8820  87.5960 0001104  68.7668 291.3578 13.11416188122067
ONEWEB-0623             
1 55164U 23004AA  25198.59526478  .00000005  00000+0 -19949-4 0  9992
2 55164  87.9049  72.4975 0001113  92.7370 267.3889 13.17648718123520
ONEWEB-0624             
1 55165U 23004AB  25199.55111330 -.00000359  00000+0 -10258-2 0  9992
2 55165  87.8861  56.9938 0001716  84.4862 275.6463 13.12941280124291
ONEWEB-0625             
1 55166U 23004AC  25199.34448095  .00000050  00000+0  94437-4 0  9990
2 55166  87.9050  72.3450 0001944  82.3009 277.8343 13.17647738123619
ONEWEB-0626             
1 55167U 23004AD  25199.18250249  .00000099  00000+0  22079-3 0  9990
2 55167  87.9051  72.3759 0002066  66.1590 293.9757 13.17649947123593
ONEWEB-0627             
1 55168U 23004AE  25199.17068692 -.00000002  00000+0 -38335-4 0  9998
2 55168  87.9042  72.3804 0001193  83.5375 276.5892 13.17647345123596
